STARLINK-30316          
1 57673U 23124L   26068.69174551 -.00000728  00000+0 -12465-4 0  9990
2 57673  53.1610 207.0679 0001176  90.1891 269.9245 15.30184915143563
TEVEL2-5                
1 63214U 25052E   26068.96660006  .00021339  00000+0  71765-3 0  9991
2 63214  97.4013 325.3677 0004700  95.3936 264.7842 15.30817434 54919
